[{"OBJECT_NAME":"GEESAT-1 05","OBJECT_ID":"2022-058E","EPOCH":"2026-03-09T23:16:32.924064","MEAN_MOTION":14.9973595,"ECCENTRICITY":0.00033659,"INCLINATION":49.9868,"RA_OF_ASC_NODE":292.6549,"ARG_OF_PERICENTER":123.1289,"MEAN_ANOMALY":236.998,"EPHEMERIS_TYPE":0,"CLASSIFICATION_TYPE":"U","NORAD_CAT_ID":52789,"ELEMENT_SET_NO":999,"REV_AT_EPOCH":20531,"BSTAR":0.00050752064,"MEAN_MOTION_DOT":6.088e-5,"MEAN_MOTION_DDOT":0},{"OBJECT_NAME":"STARLINK-4430","OBJECT_ID":"2022-099W","EPOCH":"2026-03-09T21:30:27.711648","MEAN_MOTION":15.01258738,"ECCENTRICITY":0.00032901,"INCLINATION":97.604,"RA_OF_ASC_NODE":190.4101,"ARG_OF_PERICENTER":183.5197,"MEAN_ANOMALY":176.6004,"EPHEMERIS_TYPE":0,"CLASSIFICATION_TYPE":"U","NORAD_CAT_ID":53485,"ELEMENT_SET_NO":999,"REV_AT_EPOCH":19601,"BSTAR":5.9264035e-5,"MEAN_MOTION_DOT":7.03e-6,"MEAN_MOTION_DDOT":0}]
